CCSDS_OMM_VERS = 2.0
CREATION_DATE  = 
ORIGINATOR     = 

OBJECT_NAME    = UNKNOWN
OBJECT_ID      = 
CENTER_NAME    = EARTH
REF_FRAME      = TEME
TIME_SYSTEM    = UTC
MEAN_ELEMENT_THEORY = SGP/SGP4

EPOCH          = 2025-12-11T00:17:36.525984
MEAN_MOTION    = 14.16177706
ECCENTRICITY   = .0081631
INCLINATION    = 99.0254
RA_OF_ASC_NODE = 53.7408
ARG_OF_PERICENTER = 45.8918
MEAN_ANOMALY   = 314.8934

EPHEMERIS_TYPE = 0
CLASSIFICATION_TYPE = U
NORAD_CAT_ID   = 89494
ELEMENT_SET_NO = 999
REV_AT_EPOCH   = 46355
BSTAR          = .18107E-2
MEAN_MOTION_DOT = .3657E-4
MEAN_MOTION_DDOT = 0

CCSDS_OMM_VERS = 2.0
CREATION_DATE  = 
ORIGINATOR     = 

OBJECT_NAME    = UNKNOWN
OBJECT_ID      = 
CENTER_NAME    = EARTH
REF_FRAME      = TEME
TIME_SYSTEM    = UTC
MEAN_ELEMENT_THEORY = SGP/SGP4

EPOCH          = 2025-12-17T17:17:48.707232
MEAN_MOTION    = 12.96098475
ECCENTRICITY   = .00293528
INCLINATION    = 90.2273
RA_OF_ASC_NODE = 344.0226
ARG_OF_PERICENTER = 234.3735
MEAN_ANOMALY   = 125.4650

EPHEMERIS_TYPE = 0
CLASSIFICATION_TYPE = U
NORAD_CAT_ID   = 270000
ELEMENT_SET_NO = 999
REV_AT_EPOCH   = 28658
BSTAR          = .47581669E-3
MEAN_MOTION_DOT = .143E-5
MEAN_MOTION_DDOT = 0

CCSDS_OMM_VERS = 2.0
CREATION_DATE  = 
ORIGINATOR     = 

OBJECT_NAME    = UNKNOWN
OBJECT_ID      = 
CENTER_NAME    = EARTH
REF_FRAME      = TEME
TIME_SYSTEM    = UTC
MEAN_ELEMENT_THEORY = SGP/SGP4

EPOCH          = 2025-12-16T00:30:21.408768
MEAN_MOTION    = 12.45683946
ECCENTRICITY   = .00446843
INCLINATION    = 101.8210
RA_OF_ASC_NODE = 98.1586
ARG_OF_PERICENTER = 209.2253
MEAN_ANOMALY   = 150.6312

EPHEMERIS_TYPE = 0
CLASSIFICATION_TYPE = U
NORAD_CAT_ID   = 270001
ELEMENT_SET_NO = 999
REV_AT_EPOCH   = 27534
BSTAR          = .62944524E-3
MEAN_MOTION_DOT = .46E-6
MEAN_MOTION_DDOT = 0

CCSDS_OMM_VERS = 2.0
CREATION_DATE  = 
ORIGINATOR     = 

OBJECT_NAME    = UNKNOWN
OBJECT_ID      = 
CENTER_NAME    = EARTH
REF_FRAME      = TEME
TIME_SYSTEM    = UTC
MEAN_ELEMENT_THEORY = SGP/SGP4

EPOCH          = 2025-12-17T08:19:36.673536
MEAN_MOTION    = 13.06583919
ECCENTRICITY   = .0515687
INCLINATION    = 99.6659
RA_OF_ASC_NODE = 29.7016
ARG_OF_PERICENTER = 228.6827
MEAN_ANOMALY   = 126.8807

EPHEMERIS_TYPE = 0
CLASSIFICATION_TYPE = U
NORAD_CAT_ID   = 270003
ELEMENT_SET_NO = 999
REV_AT_EPOCH   = 28794
BSTAR          = .21065278E-2
MEAN_MOTION_DOT = .1287E-4
MEAN_MOTION_DDOT = 0

CCSDS_OMM_VERS = 2.0
CREATION_DATE  = 
ORIGINATOR     = 

OBJECT_NAME    = UNKNOWN
OBJECT_ID      = 
CENTER_NAME    = EARTH
REF_FRAME      = TEME
TIME_SYSTEM    = UTC
MEAN_ELEMENT_THEORY = SGP/SGP4

EPOCH          = 2025-12-17T03:05:54.799872
MEAN_MOTION    = 12.23855392
ECCENTRICITY   = .01643477
INCLINATION    = 101.6993
RA_OF_ASC_NODE = 135.4310
ARG_OF_PERICENTER = 153.0828
MEAN_ANOMALY   = 207.8870

EPHEMERIS_TYPE = 0
CLASSIFICATION_TYPE = U
NORAD_CAT_ID   = 270004
ELEMENT_SET_NO = 999
REV_AT_EPOCH   = 27071
BSTAR          = .48358803E-3
MEAN_MOTION_DOT = .14E-6
MEAN_MOTION_DDOT = 0

CCSDS_OMM_VERS = 2.0
CREATION_DATE  = 
ORIGINATOR     = 

OBJECT_NAME    = UNKNOWN
OBJECT_ID      = 
CENTER_NAME    = EARTH
REF_FRAME      = TEME
TIME_SYSTEM    = UTC
MEAN_ELEMENT_THEORY = SGP/SGP4

EPOCH          = 2025-12-15T06:02:18.727296
MEAN_MOTION    = 12.16571025
ECCENTRICITY   = .03529951
INCLINATION    = 103.0730
RA_OF_ASC_NODE = 178.7270
ARG_OF_PERICENTER = 170.3815
MEAN_ANOMALY   = 190.4222

EPHEMERIS_TYPE = 0
CLASSIFICATION_TYPE = U
NORAD_CAT_ID   = 270005
ELEMENT_SET_NO = 999
REV_AT_EPOCH   = 26792
BSTAR          = .42227278E-2
MEAN_MOTION_DOT = .462E-5
MEAN_MOTION_DDOT = 0

CCSDS_OMM_VERS = 2.0
CREATION_DATE  = 
ORIGINATOR     = 

OBJECT_NAME    = UNKNOWN
OBJECT_ID      = 
CENTER_NAME    = EARTH
REF_FRAME      = TEME
TIME_SYSTEM    = UTC
MEAN_ELEMENT_THEORY = SGP/SGP4

EPOCH          = 2025-12-16T15:27:55.737504
MEAN_MOTION    = 12.38821266
ECCENTRICITY   = .00937391
INCLINATION    = 102.2547
RA_OF_ASC_NODE = 312.8092
ARG_OF_PERICENTER = 265.4347
MEAN_ANOMALY   = 93.6002

EPHEMERIS_TYPE = 0
CLASSIFICATION_TYPE = U
NORAD_CAT_ID   = 270006
ELEMENT_SET_NO = 999
REV_AT_EPOCH   = 27397
BSTAR          = .69880662E-4
MEAN_MOTION_DOT = -.37E-6
MEAN_MOTION_DDOT = 0

CCSDS_OMM_VERS = 2.0
CREATION_DATE  = 
ORIGINATOR     = 

OBJECT_NAME    = UNKNOWN
OBJECT_ID      = 
CENTER_NAME    = EARTH
REF_FRAME      = TEME
TIME_SYSTEM    = UTC
MEAN_ELEMENT_THEORY = SGP/SGP4

EPOCH          = 2025-12-17T09:30:35.144640
MEAN_MOTION    = 12.91532844
ECCENTRICITY   = .05650885
INCLINATION    = 31.9962
RA_OF_ASC_NODE = 19.8784
ARG_OF_PERICENTER = 8.3502
MEAN_ANOMALY   = 352.6058

EPHEMERIS_TYPE = 0
CLASSIFICATION_TYPE = U
NORAD_CAT_ID   = 270007
ELEMENT_SET_NO = 999
REV_AT_EPOCH   = 28616
BSTAR          = .28061821E-3
MEAN_MOTION_DOT = .172E-5
MEAN_MOTION_DDOT = 0

CCSDS_OMM_VERS = 2.0
CREATION_DATE  = 
ORIGINATOR     = 

OBJECT_NAME    = UNKNOWN
OBJECT_ID      = 
CENTER_NAME    = EARTH
REF_FRAME      = TEME
TIME_SYSTEM    = UTC
MEAN_ELEMENT_THEORY = SGP/SGP4

EPOCH          = 2025-12-14T09:25:50.530080
MEAN_MOTION    = 12.97601489
ECCENTRICITY   = .00343391
INCLINATION    = 90.2658
RA_OF_ASC_NODE = 23.5022
ARG_OF_PERICENTER = 187.5330
MEAN_ANOMALY   = 172.5280

EPHEMERIS_TYPE = 0
CLASSIFICATION_TYPE = U
NORAD_CAT_ID   = 270008
ELEMENT_SET_NO = 999
REV_AT_EPOCH   = 28649
BSTAR          = .27877039E-2
MEAN_MOTION_DOT = .82E-5
MEAN_MOTION_DDOT = 0

CCSDS_OMM_VERS = 2.0
CREATION_DATE  = 
ORIGINATOR     = 

OBJECT_NAME    = UNKNOWN
OBJECT_ID      = 
CENTER_NAME    = EARTH
REF_FRAME      = TEME
TIME_SYSTEM    = UTC
MEAN_ELEMENT_THEORY = SGP/SGP4

EPOCH          = 2025-12-19T20:12:48.460320
MEAN_MOTION    = 11.90739961
ECCENTRICITY   = .00524128
INCLINATION    = 82.5012
RA_OF_ASC_NODE = 204.4673
ARG_OF_PERICENTER = 70.9894
MEAN_ANOMALY   = 289.6824

EPHEMERIS_TYPE = 0
CLASSIFICATION_TYPE = U
NORAD_CAT_ID   = 270009
ELEMENT_SET_NO = 999
REV_AT_EPOCH   = 26366
BSTAR          = .57265352E-3
MEAN_MOTION_DOT = .5E-6
MEAN_MOTION_DDOT = 0

CCSDS_OMM_VERS = 2.0
CREATION_DATE  = 
ORIGINATOR     = 

OBJECT_NAME    = UNKNOWN
OBJECT_ID      = 
CENTER_NAME    = EARTH
REF_FRAME      = TEME
TIME_SYSTEM    = UTC
MEAN_ELEMENT_THEORY = SGP/SGP4

EPOCH          = 2025-12-15T17:41:55.074336
MEAN_MOTION    = 12.80238295
ECCENTRICITY   = .03286117
INCLINATION    = 103.8910
RA_OF_ASC_NODE = 350.6748
ARG_OF_PERICENTER = 126.0703
MEAN_ANOMALY   = 237.1285

EPHEMERIS_TYPE = 0
CLASSIFICATION_TYPE = U
NORAD_CAT_ID   = 270010
ELEMENT_SET_NO = 999
REV_AT_EPOCH   = 28074
BSTAR          = .11824743E-1
MEAN_MOTION_DOT = .3331E-4
MEAN_MOTION_DDOT = 0

CCSDS_OMM_VERS = 2.0
CREATION_DATE  = 
ORIGINATOR     = 

OBJECT_NAME    = UNKNOWN
OBJECT_ID      = 
CENTER_NAME    = EARTH
REF_FRAME      = TEME
TIME_SYSTEM    = UTC
MEAN_ELEMENT_THEORY = SGP/SGP4

EPOCH          = 2025-12-18T05:47:16.311264
MEAN_MOTION    = 13.55315570
ECCENTRICITY   = .01027027
INCLINATION    = 101.0569
RA_OF_ASC_NODE = 277.1147
ARG_OF_PERICENTER = 342.9863
MEAN_ANOMALY   = 16.7835

EPHEMERIS_TYPE = 0
CLASSIFICATION_TYPE = U
NORAD_CAT_ID   = 270011
ELEMENT_SET_NO = 999
REV_AT_EPOCH   = 29217
BSTAR          = .24827046E-1
MEAN_MOTION_DOT = .17758E-3
MEAN_MOTION_DDOT = 0

CCSDS_OMM_VERS = 2.0
CREATION_DATE  = 
ORIGINATOR     = 

OBJECT_NAME    = UNKNOWN
OBJECT_ID      = 
CENTER_NAME    = EARTH
REF_FRAME      = TEME
TIME_SYSTEM    = UTC
MEAN_ELEMENT_THEORY = SGP/SGP4

EPOCH          = 2025-12-19T23:27:05.261472
MEAN_MOTION    = 12.97027508
ECCENTRICITY   = .00338638
INCLINATION    = 90.2292
RA_OF_ASC_NODE = 355.3996
ARG_OF_PERICENTER = 184.7945
MEAN_ANOMALY   = 175.2856

EPHEMERIS_TYPE = 0
CLASSIFICATION_TYPE = U
NORAD_CAT_ID   = 270012
ELEMENT_SET_NO = 999
REV_AT_EPOCH   = 28711
BSTAR          = .1317689E-3
MEAN_MOTION_DOT = .46E-6
MEAN_MOTION_DDOT = 0

CCSDS_OMM_VERS = 2.0
CREATION_DATE  = 
ORIGINATOR     = 

OBJECT_NAME    = UNKNOWN
OBJECT_ID      = 
CENTER_NAME    = EARTH
REF_FRAME      = TEME
TIME_SYSTEM    = UTC
MEAN_ELEMENT_THEORY = SGP/SGP4

EPOCH          = 2025-12-17T14:58:08.988960
MEAN_MOTION    = 12.16555984
ECCENTRICITY   = .01535689
INCLINATION    = 102.6776
RA_OF_ASC_NODE = 315.2486
ARG_OF_PERICENTER = 194.7634
MEAN_ANOMALY   = 164.8900

EPHEMERIS_TYPE = 0
CLASSIFICATION_TYPE = U
NORAD_CAT_ID   = 270013
ELEMENT_SET_NO = 999
REV_AT_EPOCH   = 26913
BSTAR          = .27799499E-3
MEAN_MOTION_DOT = -.17E-6
MEAN_MOTION_DDOT = 0

CCSDS_OMM_VERS = 2.0
CREATION_DATE  = 
ORIGINATOR     = 

OBJECT_NAME    = UNKNOWN
OBJECT_ID      = 
CENTER_NAME    = EARTH
REF_FRAME      = TEME
TIME_SYSTEM    = UTC
MEAN_ELEMENT_THEORY = SGP/SGP4

EPOCH          = 2025-12-14T16:46:25.585536
MEAN_MOTION    = 12.55055092
ECCENTRICITY   = .00654904
INCLINATION    = 101.8473
RA_OF_ASC_NODE = 328.3321
ARG_OF_PERICENTER = 34.6009
MEAN_ANOMALY   = 325.9300

EPHEMERIS_TYPE = 0
CLASSIFICATION_TYPE = U
NORAD_CAT_ID   = 270014
ELEMENT_SET_NO = 999
REV_AT_EPOCH   = 27717
BSTAR          = .99544704E-3
MEAN_MOTION_DOT = .118E-5
MEAN_MOTION_DDOT = 0

CCSDS_OMM_VERS = 2.0
CREATION_DATE  = 
ORIGINATOR     = 

OBJECT_NAME    = UNKNOWN
OBJECT_ID      = 
CENTER_NAME    = EARTH
REF_FRAME      = TEME
TIME_SYSTEM    = UTC
MEAN_ELEMENT_THEORY = SGP/SGP4

EPOCH          = 2025-12-05T06:41:02.891616
MEAN_MOTION    = 13.04550999
ECCENTRICITY   = .00284403
INCLINATION    = 90.1330
RA_OF_ASC_NODE = 354.9749
ARG_OF_PERICENTER = 331.9404
MEAN_ANOMALY   = 28.0186

EPHEMERIS_TYPE = 0
CLASSIFICATION_TYPE = U
NORAD_CAT_ID   = 270015
ELEMENT_SET_NO = 999
REV_AT_EPOCH   = 28678
BSTAR          = .42345675E-2
MEAN_MOTION_DOT = .137E-4
MEAN_MOTION_DDOT = 0

